[{"OBJECT_NAME":"COSMOS 2407","OBJECT_ID":"2004-028A","EPOCH":"2026-03-09T18:32:11.166144","MEAN_MOTION":13.76325057,"ECCENTRICITY":0.00396651,"INCLINATION":82.9633,"RA_OF_ASC_NODE":148.4649,"ARG_OF_PERICENTER":168.53,"MEAN_ANOMALY":311.3754,"EPHEMERIS_TYPE":0,"CLASSIFICATION_TYPE":"U","NORAD_CAT_ID":28380,"ELEMENT_SET_NO":999,"REV_AT_EPOCH":8620,"BSTAR":5.9261217e-5,"MEAN_MOTION_DOT":7.4e-7,"MEAN_MOTION_DDOT":0},{"OBJECT_NAME":"SL-8 R\/B","OBJECT_ID":"1984-067B","EPOCH":"2026-03-09T23:19:41.584512","MEAN_MOTION":13.77584311,"ECCENTRICITY":0.0025516,"INCLINATION":82.9507,"RA_OF_ASC_NODE":246.0331,"ARG_OF_PERICENTER":158.6569,"MEAN_ANOMALY":201.5659,"EPHEMERIS_TYPE":0,"CLASSIFICATION_TYPE":"U","NORAD_CAT_ID":15078,"ELEMENT_SET_NO":999,"REV_AT_EPOCH":9525,"BSTAR":0.00017996137,"MEAN_MOTION_DOT":1.95e-6,"MEAN_MOTION_DDOT":0}]
